0 METEOR 1-13
1 06256U 72085A   13282.50900833  .00000088  00000-0  43622-4 0   241
2 06256 081.2740 321.1081 0025540 313.9044 153.0921 14.08656483103010
0 METEOR 1-13
1 06256U 72085A   13283.51072632  .00000098  00000-0  49525-4 0   250
2 06256 081.2738 320.1387 0025588 310.9355 193.1066 14.08656623103155
0 METEOR 1-13
1 06256U 72085A   13286.19405847  .00000099  00000-0  50308-4 0   279
2 06256 081.2732 317.5417 0025710 303.0049 121.0739 14.08657314103530
0 METEOR 1-13
1 06256U 72085A   13287.48120348  .00000093  00000-0  46736-4 0   287
2 06256 081.2730 316.2959 0025775 299.2094 168.5585 14.08657559103718
0 METEOR 1-13
1 06256U 72085A   13288.48327728  .00000098  00000-0  49852-4 0   297
2 06256 081.2728 315.3259 0025813 296.2594 210.3601 14.08657919103853
0 METEOR 1-13
1 06256U 72085A   13289.54121670  .00000076  00000-0  37046-4 0   303
2 06256 081.2727 314.3017 0025883 293.1597 175.4588 14.08658239104008
0 METEOR 1-13
1 06256U 72085A   13290.60831843  .00000067  00000-0  31676-4 0   316
2 06256 081.2727 313.2687 0025921 290.0208 187.0358 14.08658476104150
0 METEOR 1-13
1 06256U 72085A   13291.67754834  .00000065  00000-0  30643-4 0   320
2 06256 081.2727 312.2336 0025991 286.8968 209.3857 14.08658608104309
0 METEOR 1-13
1 06256U 72085A   13293.15056194  .00000070  00000-0  33539-4 0   333
2 06256 081.2729 310.8075 0026084 282.6037 119.4202 14.08658769104516
0 METEOR 1-13
1 06256U 72085A   13294.52409059  .00000075  00000-0  36408-4 0   341
2 06256 081.2728 309.4779 0026178 278.6208 244.9216 14.08658854104704
0 METEOR 1-13
1 06256U 72085A   13295.65472274  .00000081  00000-0  39917-4 0   351
2 06256 081.2728 308.3835 0026255 275.3423 218.6356 14.08658859104869
